NORAD_CAT_ID,OBJECT_NAME,OBJECT_TYPE,EPOCH,MEAN_MOTION,ECCENTRICITY,INCLINATION,RA_OF_ASC_NODE,ARG_OF_PERICENTER,MEAN_ANOMALY,BSTAR,MEAN_MOTION_DOT,MEAN_MOTION_DDOT,TLE_LINE0,TLE_LINE1,TLE_LINE2,SEMIMAJOR_AXIS,PERIOD,APOGEE,PERIGEE,DECAYED
53773.0,STARLINK-4718,PAYLOAD,2022-09-19 18:00:00,15.73183945,0.0001093,53.2145,224.0967,106.3637,310.3375,3.4272e-05,4.189e-05,0.0,0 STARLINK-4718,1 53773U 22111A   22262.75001157  .00004189  00000-0  34272-4 0  9996,2 53773  53.2145 224.0967 0001093 106.3637 310.3375 15.73183945  1308,6727.941,91.534,350.541,349.071,0.0
53773.0,STARLINK-4718,PAYLOAD,2022-09-19 22:00:00,15.73196701,0.0001225,53.2147,223.2721,108.2131,172.9399,-0.000108,-0.00015746,0.0,0 STARLINK-4718,1 53773U 22111A   22262.91667824 -.00015746  00000-0 -10800-3 0  9996,2 53773  53.2147 223.2721 0001225 108.2131 172.9399 15.73196701  1308,6727.905,91.533,350.594,348.945,0.0
53773.0,STARLINK-4718,PAYLOAD,2022-09-20 14:00:01,15.73218619,0.0001327,53.2148,219.9737,101.5859,357.4107,-0.00021749,-0.00031055,0.0,0 STARLINK-4718,1 53773U 22111A   22263.58334491 -.00031055  00000-0 -21749-3 0  9996,2 53773  53.2148 219.9737 0001327 101.5859 357.4107 15.73218619  1304,6727.842,91.532,350.6,348.814,0.0
53773.0,STARLINK-4718,PAYLOAD,2022-09-20 22:00:01,15.73222638,0.0001501999999999,53.2152,218.3235,107.3954,80.5791,7.112399999999999e-05,9.382e-05,0.0,0 STARLINK-4718,1 53773U 22111A   22263.91668981  .00009382  00000-0  71124-4 0  9996,2 53773  53.2152 218.3235 0001502 107.3954  80.5791 15.73222638  1488,6727.831,91.532,350.706,348.685,0.0
53773.0,STARLINK-4718,PAYLOAD,2022-09-21 14:00:01,15.73192149,0.0001044999999999,53.2148,215.0248,110.6809,255.1274,-0.00019548,-0.00027953,0.0,0 STARLINK-4718,1 53773U 22111A   22264.58334491 -.00027953  00000-0 -19548-3 0  9993,2 53773  53.2148 215.0248 0001045 110.6809 255.1274 15.73192149  1589,6727.918000000002,91.534,350.486,349.079,0.0
53773.0,STARLINK-4718,PAYLOAD,2022-09-21 22:00:00,15.7319489,0.0001088,53.215,213.3751,116.8579,337.8541,0.00034889,0.00048617,0.0,0 STARLINK-4718,1 53773U 22111A   22264.91667824  .00048617  00000-0  34889-3 0  9992,2 53773  53.2150 213.3751 0001088 116.8579 337.8541 15.73194890  1648,6727.91,91.533,350.50699999999995,349.043,0.0
53773.0,STARLINK-4718,PAYLOAD,2022-09-22 14:00:01,15.73221631,0.0001088,53.2153,210.0761,112.7554,159.841,-0.00029276,-0.00041541,0.0,0 STARLINK-4718,1 53773U 22111A   22265.58334491 -.00041541  00000-0 -29276-3 0  9992,2 53773  53.2153 210.0761 0001088 112.7554 159.8410 15.73221631  1308,6727.834,91.532,350.43,348.967,0.0
53773.0,STARLINK-4718,PAYLOAD,2022-09-22 22:00:00,15.73188023,0.000109,53.2157,208.4263,118.331,243.2119,0.00011177,0.00015086,0.0,0 STARLINK-4718,1 53773U 22111A   22265.91667824  .00015086  00000-0  11177-3 0  9992,2 53773  53.2157 208.4263 0001090 118.3310 243.2119 15.73188023  1306,6727.929,91.534,350.528,349.061,0.0
53773.0,STARLINK-4718,PAYLOAD,2022-09-23 06:00:00,15.73198528,9.93e-05,53.2158,206.7787,102.9587,347.5047,0.00019216,0.00026431,0.0,0 STARLINK-4718,1 53773U 22111A   22266.25001157  .00026431  00000-0  19216-3 0  9999,2 53773  53.2158 206.7787 0000993 102.9587 347.5047 15.73198528  1854,6727.899,91.533,350.432,349.096,0.0
53773.0,STARLINK-4718,PAYLOAD,2022-09-23 14:00:01,15.73180508,0.0001094,53.2157,205.1273,112.8546,66.5615,0.00019586,0.00026933,0.0,0 STARLINK-4718,1 53773U 22111A   22266.58334491  .00026933  00000-0  19586-3 0  9992,2 53773  53.2157 205.1273 0001094 112.8546  66.5615 15.73180508  1302,6727.951,91.534,350.552,349.08,0.0
53773.0,STARLINK-4718,PAYLOAD,2022-09-23 20:00:01,15.73199604,0.0001274999999999,53.2157,203.8899,119.8205,36.3409,0.00043711,0.00061172,0.0,0 STARLINK-4718,1 53773U 22111A   22266.83335648  .00061172  00000-0  43711-3 0  9996,2 53773  53.2157 203.8899 0001275 119.8205  36.3409 15.73199604  1304,6727.896,91.533,350.619,348.903,0.0
53773.0,STARLINK-4718,PAYLOAD,2022-09-24 14:00:01,15.73187764,0.0001123,53.2161,200.1786,120.2674,326.0868,0.00030296,0.00042089,0.0,0 STARLINK-4718,1 53773U 22111A   22267.58335648  .00042089  00000-0  30296-3 0  9999,2 53773  53.2161 200.1786 0001123 120.2674 326.0868 15.73187764  2068,6727.93,91.534,350.551,349.04,0.0
53773.0,STARLINK-4718,PAYLOAD,2022-09-24 22:00:00,15.732675699999998,0.0001364,53.2164,198.5294,116.2847,58.9244,-0.00060115,-0.00084389,0.0,0 STARLINK-4718,1 53773U 22111A   22267.91667824 -.00084389  00000-0 -60115-3 0  9994,2 53773  53.2164 198.5294 0001364 116.2847  58.9244 15.73267570  1308,6727.703,91.529,350.485,348.65,0.0
53773.0,STARLINK-4718,PAYLOAD,2022-09-25 06:00:00,15.73181087,0.0001238,53.2168,196.8842,103.0746,161.1134,-1.6607000000000002e-05,-2.948e-05,0.0,0 STARLINK-4718,1 53773U 22111A   22268.25001157 -.00002948  00000-0 -16607-4 0  9992,2 53773  53.2168 196.8842 0001238 103.0746 161.1134 15.73181087  2162,6727.949000000001,91.534,350.647,348.981,0.0
53773.0,STARLINK-4718,PAYLOAD,2022-09-25 14:00:01,15.73052779,0.0001383,53.2172,195.2347,110.4149,242.7096,0.00087849,0.00123717,0.0,0 STARLINK-4718,1 53773U 22111A   22268.58334491  .00123717  00000-0  87849-3 0  9999,2 53773  53.2172 195.2347 0001383 110.4149 242.7096 15.73052779  1303,6728.315,91.542,351.11,349.249,0.0
53773.0,STARLINK-4718,PAYLOAD,2022-09-25 22:00:01,15.73302604,0.0001127,53.2169,193.5837,121.0551,321.0107,-0.0020116,-0.002751,0.0,0 STARLINK-4718,1 53773U 22111A   22268.91668981 -.00275100  00000-0 -20116-2 0  9999,2 53773  53.2169 193.5837 0001127 121.0551 321.0107 15.73302604  2271,6727.603,91.527,350.226,348.709,0.0
53773.0,STARLINK-4718,PAYLOAD,2022-09-26 10:00:00,15.73199661,0.0001177999999999,53.2159,191.1076,114.5488,280.848,-0.00048166,-0.00067674,0.0,0 STARLINK-4718,1 53773U 22111A   22269.41667824 -.00067674  00000-0 -48166-3 0  9991,2 53773  53.2159 191.1076 0001178 114.5488 280.8480 15.73199661  2342,6727.896,91.533,350.55400000000014,348.969,0.0
53773.0,STARLINK-4718,PAYLOAD,2022-09-26 14:00:01,15.7312647,0.0001314,53.2163,190.2819,118.4075,141.4518,0.00043973,0.0006135,0.0,0 STARLINK-4718,1 53773U 22111A   22269.58334491  .00061350  00000-0  43973-3 0  9994,2 53773  53.2163 190.2819 0001314 118.4075 141.4518 15.73126470  1306,6728.105,91.537,350.85400000000016,349.086,0.0
53773.0,STARLINK-4718,PAYLOAD,2022-09-26 22:00:00,15.73188958,0.0001388,53.2164,188.633,117.0298,231.685,0.00016887,0.00023134,0.0,0 STARLINK-4718,1 53773U 22111A   22269.91667824  .00023134  00000-0  16887-3 0  9992,2 53773  53.2164 188.6330 0001388 117.0298 231.6850 15.73188958  1309,6727.927,91.534,350.725,348.858,0.0
53773.0,STARLINK-4718,PAYLOAD,2022-09-27 14:00:01,15.73193604,0.0001401,53.2161,185.3335,118.3771,48.2436,0.00061573,0.00086666,0.0,0 STARLINK-4718,1 53773U 22111A   22270.58334491  .00086666  00000-0  61573-3 0  9999,2 53773  53.2161 185.3335 0001401 118.3771  48.2436 15.73193604  1307,6727.913000000001,91.534,350.721,348.836,0.0
53773.0,STARLINK-4718,PAYLOAD,2022-09-27 22:00:01,15.73304778,0.0001429,53.2159,183.685,119.2428,136.4001,-0.00046206,-0.00065258,0.0,0 STARLINK-4718,1 53773U 22111A   22270.91668981 -.00065258  00000-0 -46206-3 0  9992,2 53773  53.2159 183.6850 0001429 119.2428 136.4001 15.73304778  2581,6727.596,91.527,350.423,348.5,0.0
53773.0,STARLINK-4718,PAYLOAD,2022-09-28 14:00:01,15.73256495,0.0001312,53.2157,180.3847,128.9484,304.6827,-0.00046107,-0.00064986,0.0,0 STARLINK-4718,1 53773U 22111A   22271.58334491 -.00064986  00000-0 -46107-3 0  9999,2 53773  53.2157 180.3847 0001312 128.9484 304.6827 15.73256495  1305,6727.734,91.53,350.482,348.716,0.0
53773.0,STARLINK-4718,PAYLOAD,2022-09-28 22:00:00,15.73218396,0.000117,53.2157,178.7361,126.5411,36.0013,-0.0013099,-0.00180701,0.0,0 STARLINK-4718,1 53773U 22111A   22271.91667824 -.00180701  00000-0 -13099-2 0  9992,2 53773  53.2157 178.7361 0001170 126.5411  36.0013 15.73218396  1304,6727.843000000003,91.532,350.495,348.921,0.0
53773.0,STARLINK-4718,PAYLOAD,2022-09-29 06:00:00,15.73042901,8.609999999999999e-05,53.2153,177.0877,126.4979,124.9282,0.00051148,0.0007128999999999,0.0,0 STARLINK-4718,1 53773U 22111A   22272.25001157  .00071290  00000-0  51148-3 0  9999,2 53773  53.2153 177.0877 0000861 126.4979 124.9282 15.73042901  2794,6728.343000000003,91.542,350.787,349.629,0.0
53773.0,STARLINK-4718,PAYLOAD,2022-09-29 14:00:01,15.73057584,0.0001062,53.2152,175.4366,136.3989,203.7932,0.0014283,0.00203519,0.0,0 STARLINK-4718,1 53773U 22111A   22272.58334491  .00203519  00000-0  14283-2 0  9994,2 53773  53.2152 175.4366 0001062 136.3989 203.7932 15.73057584  1300,6728.301,91.541,350.881,349.452,0.0
53773.0,STARLINK-4718,PAYLOAD,2022-09-29 20:00:01,15.7319704,0.0001152,53.2152,174.2003,133.5632,183.2996,0.00025318,0.00035056,0.0,0 STARLINK-4718,1 53773U 22111A   22272.83335648  .00035056  00000-0  25318-3 0  9998,2 53773  53.2152 174.2003 0001152 133.5632 183.2996 15.73197040  2887,6727.904,91.533,350.5440000000001,348.994,0.0
53773.0,STARLINK-4718,PAYLOAD,2022-09-29 22:00:00,15.73209039,0.0001081,53.215,173.7887,130.2608,298.7648,0.00026741,0.00037089,0.0,0 STARLINK-4718,1 53773U 22111A   22272.91667824  .00037089  00000-0  26741-3 0  9990,2 53773  53.2150 173.7887 0001081 130.2608 298.7648 15.73209039  1301,6727.869000000002,91.533,350.462,349.00699999999995,0.0
53773.0,STARLINK-4718,PAYLOAD,2022-09-30 14:00:01,15.73222777,0.0001323,53.2147,170.4881,128.7051,118.2696,-0.00014243,-0.0002058,0.0,0 STARLINK-4718,1 53773U 22111A   22273.58334491 -.00020580  00000-0 -14243-3 0  9999,2 53773  53.2147 170.4881 0001323 128.7051 118.2696 15.73222777  1301,6727.83,91.532,350.585,348.805,0.0
53773.0,STARLINK-4718,PAYLOAD,2022-09-30 22:00:00,15.73251195,0.0001348,53.2148,168.8398,123.24,212.7053,-0.00014869,-0.0002148,0.0,0 STARLINK-4718,1 53773U 22111A   22273.91667824 -.00021480  00000-0 -14869-3 0  9999,2 53773  53.2148 168.8398 0001348 123.2400 212.7053 15.73251195  3058,6727.749,91.53,350.521,348.707,0.0
